IRIDIUM 116             
1 43072U 17083C   24120.94716553  .00000075  00000+0  19850-4 0  9992
2 43072  86.3918 287.2416 0001976  94.0278 266.1144 14.34218147332621
IRIDIUM 130             
1 43073U 17083D   24120.91544887  .00000173  00000+0  54733-4 0  9997
2 43073  86.3924 287.4547 0002156  87.9809 272.1634 14.34219860332565
IRIDIUM 151             
1 43074U 17083E   24120.89008182  .00000169  00000+0  53227-4 0  9990
2 43074  86.3919 287.3055 0002396 100.3018 259.8448 14.34218889332588
IRIDIUM 134             
1 43075U 17083F   24120.92813608  .00000215  00000+0  69795-4 0  9991
2 43075  86.3920 287.2872 0002033  87.0603 273.0826 14.34219442332557
IRIDIUM 137             
1 43076U 17083G   24120.87105315  .00000152  00000+0  47054-4 0  9999
2 43076  86.3921 287.3882 0002037 103.7514 256.3908 14.34216917332618
IRIDIUM 141             
1 43077U 17083H   24120.93448089  .00000010  00000+0 -34745-5 0  9993
2 43077  86.3913 287.2365 0002115  92.6259 267.5179 14.34217683332620
IRIDIUM 153             
1 43078U 17083J   24120.88666256  .00000587  00000+0  20264-3 0  9993
2 43078  86.3956 255.6930 0002588  90.2172 269.9320 14.34214566333720
IRIDIUM 131             
1 43079U 17083K   24120.92179602  .00000073  00000+0  19129-4 0  9992
2 43079  86.3922 287.3759 0002106  96.9831 263.1604 14.34217727332559
